[{"OBJECT_NAME":"STARLINK-35391","OBJECT_ID":"2025-270AE","EPOCH":"2026-03-09T22:55:30.056736","MEAN_MOTION":15.27597344,"ECCENTRICITY":0.00012095,"INCLINATION":43.002,"RA_OF_ASC_NODE":54.9184,"ARG_OF_PERICENTER":183.6538,"MEAN_ANOMALY":176.4305,"EPHEMERIS_TYPE":0,"CLASSIFICATION_TYPE":"U","NORAD_CAT_ID":66616,"ELEMENT_SET_NO":999,"REV_AT_EPOCH":1785,"BSTAR":0.0012332792,"MEAN_MOTION_DOT":0.00033849,"MEAN_MOTION_DDOT":0},{"OBJECT_NAME":"SLS DEB","OBJECT_ID":"2022-156G","EPOCH":"2026-03-08T17:53:10.813056","MEAN_MOTION":12.40383613,"ECCENTRICITY":0.14180709,"INCLINATION":30.5405,"RA_OF_ASC_NODE":304.991,"ARG_OF_PERICENTER":67.3282,"MEAN_ANOMALY":307.0829,"EPHEMERIS_TYPE":0,"CLASSIFICATION_TYPE":"U","NORAD_CAT_ID":55907,"ELEMENT_SET_NO":999,"REV_AT_EPOCH":13507,"BSTAR":0.011881902,"MEAN_MOTION_DOT":0.00109897,"MEAN_MOTION_DDOT":0}]
